[{"OBJECT_NAME":"STARLINK-3685","OBJECT_ID":"2022-029AD","EPOCH":"2026-03-09T06:27:57.002400","MEAN_MOTION":15.0883145,"ECCENTRICITY":0.00013346,"INCLINATION":53.2174,"RA_OF_ASC_NODE":81.0082,"ARG_OF_PERICENTER":90.6968,"MEAN_ANOMALY":269.4177,"EPHEMERIS_TYPE":0,"CLASSIFICATION_TYPE":"U","NORAD_CAT_ID":52115,"ELEMENT_SET_NO":999,"REV_AT_EPOCH":22072,"BSTAR":0.00010459442,"MEAN_MOTION_DOT":1.377e-5,"MEAN_MOTION_DDOT":0},{"OBJECT_NAME":"ELECTRON KICK STAGE R\/B","OBJECT_ID":"2025-229C","EPOCH":"2026-03-09T11:01:34.584384","MEAN_MOTION":15.04670102,"ECCENTRICITY":0.00392514,"INCLINATION":41.9818,"RA_OF_ASC_NODE":119.4948,"ARG_OF_PERICENTER":118.9737,"MEAN_ANOMALY":241.5033,"EPHEMERIS_TYPE":0,"CLASSIFICATION_TYPE":"U","NORAD_CAT_ID":65973,"ELEMENT_SET_NO":999,"REV_AT_EPOCH":2194,"BSTAR":0.00045211532,"MEAN_MOTION_DOT":6.384e-5,"MEAN_MOTION_DDOT":0}]
